{"type":"FeatureCollection","features":[
{"type":"Feature","geometry":{"type":"Point","coordinates":[-43.130300,-22.903200]},"properties":{"id":"uff-praia-vermelha","label":"UFF · Praia Vermelha Campus, Niterói/Rio de Janeiro","sourceUrl":"https://www.uff.br/setor/escola-de-engenharia/","verifiedAt":"2026-09-14"}},
{"type":"Feature","geometry":{"type":"Point","coordinates":[-43.334431,-23.001079]},"properties":{"id":"ibmr-barra","label":"IBMR · Barra Campus","sourceUrl":"https://www.ibmr.br/","verifiedAt":"2026-09-14"}},
{"type":"Feature","geometry":{"type":"Point","coordinates":[-51.934700,-23.421500]},"properties":{"id":"facint-maringa","label":"FACINT · Maringá, Paraná","sourceUrl":"https://facint.edu.br/unidades","verifiedAt":"2026-09-14"}},
{"type":"Feature","geometry":{"type":"Point","coordinates":[-43.367850,-22.882930]},"properties":{"id":"unopar-valqueire","label":"Unopar Anhanguera · Vila Valqueire, Rio de Janeiro","sourceUrl":"https://www.benditoguia.com.br/empresa/faculdade-anhanguera-polo-valqueire-vila-rio-de-janeiro","verifiedAt":"2026-09-14"}},
{"type":"Feature","geometry":{"type":"Point","coordinates":[-122.791740,45.452150]},"properties":{"id":"climatematch-beaverton","label":"Climatematch Academy / Neuromatch · Beaverton, Oregon","sourceUrl":"https://neuromatch.io/connect-with-us/","verifiedAt":"2026-09-14"}},
{"type":"Feature","geometry":{"type":"Point","coordinates":[-43.233067,-22.979613]},"properties":{"id":"puc-rio-gavea","label":"PUC-Rio · Gávea Campus","sourceUrl":"https://www.fis.puc-rio.br/pb/locations/puc-rio/","verifiedAt":"2026-09-14"}},
{"type":"Feature","geometry":{"type":"Point","coordinates":[-43.184400,-22.896500]},"properties":{"id":"inea-rio","label":"INEA · Avenida Venezuela, Rio de Janeiro","sourceUrl":"https://eguias.net/empresa/inea-instituto-estadual-do-ambiente/rio-de-janeiro/rj/2628911","verifiedAt":"2026-09-14"}},
{"type":"Feature","geometry":{"type":"Point","coordinates":[-43.120200,-22.894400]},"properties":{"id":"prefeitura-niteroi","label":"Reference location · Prefeitura de Niterói","sourceUrl":"https://eguias.net/empresa/prefeitura-municipal-de-niteroi-fiscalizacao-postura/niteroi/rj/2192361","verifiedAt":"2026-09-14"}},
{"type":"Feature","geometry":{"type":"Point","coordinates":[-43.185026,-22.896038]},"properties":{"id":"seas-rio","label":"SEAS · Avenida Venezuela, Rio de Janeiro","sourceUrl":"https://br.near-place.com/secretary-of-state-for-the-environment-avenida-venezuela-110-saude-rio-de-janeiro","verifiedAt":"2026-09-14"}},
{"type":"Feature","geometry":{"type":"Point","coordinates":[-46.698056,-23.601389]},"properties":{"id":"tria-sao-paulo","label":"TRIA Energia · São Paulo","sourceUrl":"https://triaenergia.com.br/","verifiedAt":"2026-09-14"}}
]}
